STARLINK-35843          
1 67606U 26018T   26041.91667824 -.00029344  00000+0 -15287-3 0  9997
2 67606  97.2773 106.3767 0001519  76.9268 212.0034 15.80828918  3102
STARLINK-36351          
1 67607U 26018U   26041.91667824  .00014455  00000+0  76085-4 0  9997
2 67607  97.2777 106.3800 0001369  78.3833 215.5700 15.80813454  3109
STARLINK-36411          
1 67608U 26018V   26041.91667824 -.00032338  00000+0 -16855-3 0  9998
2 67608  97.2764 106.3822 0001888  84.6214 217.0706 15.80835032  3096
STARLINK-36312          
1 67609U 26018W   26041.91667824 -.00021218  00000+0 -11026-3 0  9999
2 67609  97.2767 106.3856 0001685  88.8522 219.6012 15.80823035  3100
STARLINK-36387          
1 67610U 26018X   26041.91667824  .00075617  00000+0  39279-3 0  9991
2 67610  97.2764 106.3890 0001194  78.5617 238.1162 15.80777637  3101
STARLINK-36636          
1 67611U 26018Y   26041.91667824 -.00016998  00000+0 -88200-4 0  9990
2 67611  97.2762 106.3911 0001610  86.2274 236.5347 15.80808270  3051
STARLINK-36407          
1 67612U 26018Z   26041.91667824 -.00032775  00000+0 -17094-3 0  9994
2 67612  97.2763 106.3936 0001923  72.0814 255.8702 15.80823063  3146
STARLINK-36597          
1 67613U 26018AA  26041.91667824 -.00196036  00000+0 -10408-2 0  9997
2 67613  97.2756 106.3951 0001799  69.8996 263.8383 15.80918109  3052
NEONSAT-1A              
1 67614U 26019A   26041.89993027  .00003729  00000+0  24868-3 0  9993
2 67614  97.4083 166.4431 0012052 265.6434  94.3417 15.07590975  1784
ELECTRON R/B            
1 67615U 26019B   26041.87845039  .06283685  21437-5  10481-2 0  9996
2 67615  97.4151 167.9473 0078080 186.3106 173.7210 16.23910657  1876
ELECTRON KICK STAGE R/B 
1 67616U 26019C   26041.91364490  .00349949  35521-4  17551-2 0  9992
2 67616  97.4048 167.3367 0186499 219.5199 139.2337 15.60644486  1841
STARLINK-36548          
1 67617U 26020A   26041.91667824  .00021734  00000+0  13623-3 0  9997
2 67617  42.9986 305.0004 0001701 254.7045 311.2227 15.76347441  3086
