CCSDS_OMM_VERS = 2.0
CREATION_DATE  = 
ORIGINATOR     = 

OBJECT_NAME    = STARLINK-35843
OBJECT_ID      = 2026-018T
CENTER_NAME    = EARTH
REF_FRAME      = TEME
TIME_SYSTEM    = UTC
MEAN_ELEMENT_THEORY = SGP/SGP4

EPOCH          = 2026-02-10T22:00:00.999936
MEAN_MOTION    = 15.80828918
ECCENTRICITY   = .00015192
INCLINATION    = 97.2773
RA_OF_ASC_NODE = 106.3767
ARG_OF_PERICENTER = 76.9268
MEAN_ANOMALY   = 212.0034

EPHEMERIS_TYPE = 0
CLASSIFICATION_TYPE = U
NORAD_CAT_ID   = 67606
ELEMENT_SET_NO = 999
REV_AT_EPOCH   = 310
BSTAR          = -.15287289E-3
MEAN_MOTION_DOT = -.29344E-3
MEAN_MOTION_DDOT = 0

CCSDS_OMM_VERS = 2.0
CREATION_DATE  = 
ORIGINATOR     = 

OBJECT_NAME    = STARLINK-36351
OBJECT_ID      = 2026-018U
CENTER_NAME    = EARTH
REF_FRAME      = TEME
TIME_SYSTEM    = UTC
MEAN_ELEMENT_THEORY = SGP/SGP4

EPOCH          = 2026-02-10T22:00:00.999936
MEAN_MOTION    = 15.80813454
ECCENTRICITY   = .00013695
INCLINATION    = 97.2777
RA_OF_ASC_NODE = 106.3800
ARG_OF_PERICENTER = 78.3833
MEAN_ANOMALY   = 215.5700

EPHEMERIS_TYPE = 0
CLASSIFICATION_TYPE = U
NORAD_CAT_ID   = 67607
ELEMENT_SET_NO = 999
REV_AT_EPOCH   = 310
BSTAR          = .760852E-4
MEAN_MOTION_DOT = .14455E-3
MEAN_MOTION_DDOT = 0

CCSDS_OMM_VERS = 2.0
CREATION_DATE  = 
ORIGINATOR     = 

OBJECT_NAME    = STARLINK-36411
OBJECT_ID      = 2026-018V
CENTER_NAME    = EARTH
REF_FRAME      = TEME
TIME_SYSTEM    = UTC
MEAN_ELEMENT_THEORY = SGP/SGP4

EPOCH          = 2026-02-10T22:00:00.999936
MEAN_MOTION    = 15.80835032
ECCENTRICITY   = .00018881
INCLINATION    = 97.2764
RA_OF_ASC_NODE = 106.3822
ARG_OF_PERICENTER = 84.6214
MEAN_ANOMALY   = 217.0706

EPHEMERIS_TYPE = 0
CLASSIFICATION_TYPE = U
NORAD_CAT_ID   = 67608
ELEMENT_SET_NO = 999
REV_AT_EPOCH   = 309
BSTAR          = -.16854964E-3
MEAN_MOTION_DOT = -.32338E-3
MEAN_MOTION_DDOT = 0

CCSDS_OMM_VERS = 2.0
CREATION_DATE  = 
ORIGINATOR     = 

OBJECT_NAME    = STARLINK-36312
OBJECT_ID      = 2026-018W
CENTER_NAME    = EARTH
REF_FRAME      = TEME
TIME_SYSTEM    = UTC
MEAN_ELEMENT_THEORY = SGP/SGP4

EPOCH          = 2026-02-10T22:00:00.999936
MEAN_MOTION    = 15.80823035
ECCENTRICITY   = .00016856
INCLINATION    = 97.2767
RA_OF_ASC_NODE = 106.3856
ARG_OF_PERICENTER = 88.8522
MEAN_ANOMALY   = 219.6012

EPHEMERIS_TYPE = 0
CLASSIFICATION_TYPE = U
NORAD_CAT_ID   = 67609
ELEMENT_SET_NO = 999
REV_AT_EPOCH   = 310
BSTAR          = -.11025763E-3
MEAN_MOTION_DOT = -.21218E-3
MEAN_MOTION_DDOT = 0

CCSDS_OMM_VERS = 2.0
CREATION_DATE  = 
ORIGINATOR     = 

OBJECT_NAME    = STARLINK-36387
OBJECT_ID      = 2026-018X
CENTER_NAME    = EARTH
REF_FRAME      = TEME
TIME_SYSTEM    = UTC
MEAN_ELEMENT_THEORY = SGP/SGP4

EPOCH          = 2026-02-10T22:00:00.999936
MEAN_MOTION    = 15.80777637
ECCENTRICITY   = .00011949
INCLINATION    = 97.2764
RA_OF_ASC_NODE = 106.3890
ARG_OF_PERICENTER = 78.5617
MEAN_ANOMALY   = 238.1162

EPHEMERIS_TYPE = 0
CLASSIFICATION_TYPE = U
NORAD_CAT_ID   = 67610
ELEMENT_SET_NO = 999
REV_AT_EPOCH   = 310
BSTAR          = .39278813E-3
MEAN_MOTION_DOT = .75617E-3
MEAN_MOTION_DDOT = 0

CCSDS_OMM_VERS = 2.0
CREATION_DATE  = 
ORIGINATOR     = 

OBJECT_NAME    = STARLINK-36636
OBJECT_ID      = 2026-018Y
CENTER_NAME    = EARTH
REF_FRAME      = TEME
TIME_SYSTEM    = UTC
MEAN_ELEMENT_THEORY = SGP/SGP4

EPOCH          = 2026-02-10T22:00:00.999936
MEAN_MOTION    = 15.80808270
ECCENTRICITY   = .00016101
INCLINATION    = 97.2762
RA_OF_ASC_NODE = 106.3911
ARG_OF_PERICENTER = 86.2274
MEAN_ANOMALY   = 236.5347

EPHEMERIS_TYPE = 0
CLASSIFICATION_TYPE = U
NORAD_CAT_ID   = 67611
ELEMENT_SET_NO = 999
REV_AT_EPOCH   = 305
BSTAR          = -.88200277E-4
MEAN_MOTION_DOT = -.16998E-3
MEAN_MOTION_DDOT = 0

CCSDS_OMM_VERS = 2.0
CREATION_DATE  = 
ORIGINATOR     = 

OBJECT_NAME    = STARLINK-36407
OBJECT_ID      = 2026-018Z
CENTER_NAME    = EARTH
REF_FRAME      = TEME
TIME_SYSTEM    = UTC
MEAN_ELEMENT_THEORY = SGP/SGP4

EPOCH          = 2026-02-10T22:00:00.999936
MEAN_MOTION    = 15.80823063
ECCENTRICITY   = .00019238
INCLINATION    = 97.2763
RA_OF_ASC_NODE = 106.3936
ARG_OF_PERICENTER = 72.0814
MEAN_ANOMALY   = 255.8702

EPHEMERIS_TYPE = 0
CLASSIFICATION_TYPE = U
NORAD_CAT_ID   = 67612
ELEMENT_SET_NO = 999
REV_AT_EPOCH   = 314
BSTAR          = -.17094119E-3
MEAN_MOTION_DOT = -.32775E-3
MEAN_MOTION_DDOT = 0

CCSDS_OMM_VERS = 2.0
CREATION_DATE  = 
ORIGINATOR     = 

OBJECT_NAME    = STARLINK-36597
OBJECT_ID      = 2026-018AA
CENTER_NAME    = EARTH
REF_FRAME      = TEME
TIME_SYSTEM    = UTC
MEAN_ELEMENT_THEORY = SGP/SGP4

EPOCH          = 2026-02-10T22:00:00.999936
MEAN_MOTION    = 15.80918109
ECCENTRICITY   = .0001799
INCLINATION    = 97.2756
RA_OF_ASC_NODE = 106.3951
ARG_OF_PERICENTER = 69.8996
MEAN_ANOMALY   = 263.8383

EPHEMERIS_TYPE = 0
CLASSIFICATION_TYPE = U
NORAD_CAT_ID   = 67613
ELEMENT_SET_NO = 999
REV_AT_EPOCH   = 305
BSTAR          = -.10408345E-2
MEAN_MOTION_DOT = -.196036E-2
MEAN_MOTION_DDOT = 0

CCSDS_OMM_VERS = 2.0
CREATION_DATE  = 
ORIGINATOR     = 

OBJECT_NAME    = NEONSAT-1A
OBJECT_ID      = 2026-019A
CENTER_NAME    = EARTH
REF_FRAME      = TEME
TIME_SYSTEM    = UTC
MEAN_ELEMENT_THEORY = SGP/SGP4

EPOCH          = 2026-02-10T21:35:53.975328
MEAN_MOTION    = 15.07590975
ECCENTRICITY   = .0012052
INCLINATION    = 97.4083
RA_OF_ASC_NODE = 166.4431
ARG_OF_PERICENTER = 265.6434
MEAN_ANOMALY   = 94.3417

EPHEMERIS_TYPE = 0
CLASSIFICATION_TYPE = U
NORAD_CAT_ID   = 67614
ELEMENT_SET_NO = 999
REV_AT_EPOCH   = 178
BSTAR          = .24868481E-3
MEAN_MOTION_DOT = .3729E-4
MEAN_MOTION_DDOT = 0

CCSDS_OMM_VERS = 2.0
CREATION_DATE  = 
ORIGINATOR     = 

OBJECT_NAME    = ELECTRON R/B
OBJECT_ID      = 2026-019B
CENTER_NAME    = EARTH
REF_FRAME      = TEME
TIME_SYSTEM    = UTC
MEAN_ELEMENT_THEORY = SGP/SGP4

EPOCH          = 2026-02-10T21:04:58.113696
MEAN_MOTION    = 16.23910657
ECCENTRICITY   = .00780803
INCLINATION    = 97.4151
RA_OF_ASC_NODE = 167.9473
ARG_OF_PERICENTER = 186.3106
MEAN_ANOMALY   = 173.7210

EPHEMERIS_TYPE = 0
CLASSIFICATION_TYPE = U
NORAD_CAT_ID   = 67615
ELEMENT_SET_NO = 999
REV_AT_EPOCH   = 187
BSTAR          = .10481262E-2
MEAN_MOTION_DOT = .6283685E-1
MEAN_MOTION_DDOT = .2143659E-5

CCSDS_OMM_VERS = 2.0
CREATION_DATE  = 
ORIGINATOR     = 

OBJECT_NAME    = ELECTRON KICK STAGE R/B
OBJECT_ID      = 2026-019C
CENTER_NAME    = EARTH
REF_FRAME      = TEME
TIME_SYSTEM    = UTC
MEAN_ELEMENT_THEORY = SGP/SGP4

EPOCH          = 2026-02-10T21:55:38.919360
MEAN_MOTION    = 15.60644486
ECCENTRICITY   = .01864999
INCLINATION    = 97.4048
RA_OF_ASC_NODE = 167.3367
ARG_OF_PERICENTER = 219.5199
MEAN_ANOMALY   = 139.2337

EPHEMERIS_TYPE = 0
CLASSIFICATION_TYPE = U
NORAD_CAT_ID   = 67616
ELEMENT_SET_NO = 999
REV_AT_EPOCH   = 184
BSTAR          = .17551216E-2
MEAN_MOTION_DOT = .349949E-2
MEAN_MOTION_DDOT = .35520622E-4

CCSDS_OMM_VERS = 2.0
CREATION_DATE  = 
ORIGINATOR     = 

OBJECT_NAME    = STARLINK-36548
OBJECT_ID      = 2026-020A
CENTER_NAME    = EARTH
REF_FRAME      = TEME
TIME_SYSTEM    = UTC
MEAN_ELEMENT_THEORY = SGP/SGP4

EPOCH          = 2026-02-10T22:00:00.999936
MEAN_MOTION    = 15.76347441
ECCENTRICITY   = .00017015
INCLINATION    = 42.9986
RA_OF_ASC_NODE = 305.0004
ARG_OF_PERICENTER = 254.7045
MEAN_ANOMALY   = 311.2227

EPHEMERIS_TYPE = 0
CLASSIFICATION_TYPE = U
NORAD_CAT_ID   = 67617
ELEMENT_SET_NO = 999
REV_AT_EPOCH   = 308
BSTAR          = .13622772E-3
MEAN_MOTION_DOT = .21734E-3
MEAN_MOTION_DDOT = 0

